1 45150U 20008V   23103.44540137  .00000650  00000-0  18252-2 0  9993
2 45150  87.8760 266.8599 0001409 111.1060 249.0218 13.10370393156460
1 45150U 20008V   23103.75083153  .00000829  00000-0  23377-2 0  9999
2 45150  87.8759 266.7988 0001437 110.8223 249.3058 13.10370995157270
1 45150U 20008V   23104.51440855  .00000719  00000-0  20245-2 0  9999
2 45150  87.8761 266.6463 0001432 111.4617 248.6663 13.10371327156609
1 45150U 20008V   23105.50705629  .00000712  00000-0  20046-2 0  9994
2 45150  87.8766 266.4480 0001435 111.8002 248.3278 13.10372606156730
1 45150U 20008V   23105.88884371  .00000588  00000-0  16471-2 0  9995
2 45150  87.8767 266.3718 0001436 112.1788 247.9492 13.10373075156789
1 45150U 20008V   23106.49970319  .00000557  00000-0  15591-2 0  9999
2 45150  87.8768 266.2498 0001452 112.4429 247.6852 13.10373365157631
1 45150U 20008V   23106.88148947  .00000519  00000-0  14511-2 0  9995
2 45150  87.8768 266.1735 0001469 112.5013 247.6270 13.10374300156916
1 45150U 20008V   23107.49234825  .00000403  00000-0  11195-2 0  9991
2 45150  87.8770 266.0515 0001501 112.4406 247.6880 13.10374573156993
1 45150U 20008V   23107.87413490  .00000293  00000-0  80176-3 0  9993
2 45150  87.8771 265.9753 0001504 112.8125 247.3162 13.10374579157044
1 45150U 20008V   23108.40863540  .00000276  00000-0  75345-3 0  9991
2 45150  87.8772 265.8686 0001521 113.1456 246.9831 13.10375141157111
1 45150U 20008V   23108.71406407  .00000175  00000-0  46431-3 0  9992
2 45150  87.8773 265.8077 0001533 113.2246 246.9043 13.10375684157158
1 45150U 20008V   23109.17220816  .00000018  00000-0  16655-4 0  9993
2 45150  87.8774 265.7162 0001523 113.4981 246.6306 13.10375059157986
1 45150U 20008V   23109.40127997  .00000009  00000-0 -99725-5 0  9996
2 45150  87.8774 265.6705 0001530 113.6293 246.4995 13.10374969157244
1 45150U 20008V   23109.70670847 -.00000021  00000-0 -95373-4 0  9995
2 45150  87.8775 265.6095 0001545 113.7256 246.4034 13.10375442157288
1 45150U 20008V   23110.39392410 -.00000229  00000-0 -69270-3 0  9995
2 45150  87.8777 265.4724 0001566 114.4298 245.6993 13.10375112157373
1 45150U 20008V   23110.69935353 -.00000312  00000-0 -92899-3 0  9993
2 45150  87.8776 265.4115 0001580 114.6859 245.4433 13.10374612157413
1 45150U 20008V   23111.15749674 -.00000331  00000-0 -98541-3 0  9995
2 45150  87.8775 265.3201 0001583 115.0104 245.1188 13.10374799157474
1 45150U 20008V   23112.15014295 -.00000578  00000-0 -16922-2 0  9995
2 45150  87.8774 265.1221 0001622 115.2758 244.8538 13.10373522157607
1 45150U 20008V   23112.15014295 -.00000578  00000-0 -16922-2 0  9995
2 45150  87.8774 265.1221 0001622 115.2758 244.8538 13.10373522158372
1 45150U 20008V   23112.68464442 -.00000548  00000-0 -16075-2 0  9992
2 45150  87.8776 265.0155 0001634 115.4585 244.6711 13.10373332157674
1 45150U 20008V   23113.37186149 -.00000626  00000-0 -18294-2 0  9996
2 45150  87.8776 264.8787 0001656 115.5010 244.6289 13.10373015157768
1 45150U 20008V   23113.37186149 -.00000626  00000-0 -18294-2 0  9996
2 45150  87.8776 264.8787 0001656 115.5010 244.6289 13.10373015158534
1 45150U 20008V   23113.44821902 -.00000548  00000-0 -16073-2 0  9993
2 45150  87.8779 264.8636 0001670 115.5334 244.5966 13.10372626157778
1 45150U 20008V   23114.36450961 -.00000572  00000-0 -16755-2 0  9992
2 45150  87.8776 264.6801 0001706 115.6254 244.5050 13.10372037157892
1 45150U 20008V   23115.43351683 -.00000471  00000-0 -13865-2 0  9999
2 45150  87.8776 264.4666 0001747 115.8289 244.3018 13.10370724158034
1 45150U 20008V   23116.42616747 -.00000378  00000-0 -11194-2 0  9993
2 45150  87.8778 264.2686 0001757 115.9730 244.1578 13.10370093158161
1 45150U 20008V   23116.65524053 -.00000312  00000-0 -92889-3 0  9995
2 45150  87.8779 264.2229 0001767 115.8869 244.2440 13.10370176158192
1 45150U 20008V   23117.49517658 -.00000147  00000-0 -45868-3 0  9992
2 45150  87.8778 264.0552 0001795 115.9154 244.2159 13.10369600159072
1 45150U 20008V   23118.48782839  .00000078  00000-0  18745-3 0  9992
2 45150  87.8779 263.8571 0001830 115.7813 244.3504 13.10369441158438
1 45150U 20008V   23118.64054386  .00000126  00000-0  32569-3 0  9993
2 45150  87.8780 263.8266 0001837 115.7794 244.3523 13.10369606159228
1 45150U 20008V   23119.48047905  .00000368  00000-0  10189-2 0  9996
2 45150  87.8780 263.6590 0001858 115.6504 244.4815 13.10370609158563
1 45150U 20008V   23119.93862574  .00000427  00000-0  11869-2 0  9995
2 45150  87.8782 263.5676 0001880 115.5935 244.5387 13.10370769159395
1 45150U 20008V   23120.47312938  .00000564  00000-0  15785-2 0  9993
2 45150  87.8783 263.4609 0001904 115.2612 244.8712 13.10371431158691
1 45150U 20008V   23121.38942077  .00000710  00000-0  19964-2 0  9993
2 45150  87.8785 263.2780 0001920 114.3438 245.7890 13.10372767159584
1 45150U 20008V   23121.46577837  .00000548  00000-0  15337-2 0  9999
2 45150  87.8785 263.2629 0001907 113.7619 246.3709 13.10373460158828
1 45150U 20008V   23121.92392476  .00000558  00000-0  15623-2 0  9993
2 45150  87.8787 263.1717 0001910 112.8917 247.2412 13.10372750158880
1 45150U 20008V   23122.45842653  .00000674  00000-0  18938-2 0  9990
2 45150  87.8787 263.0650 0001892 112.0285 248.1044 13.10374128159720
1 45150U 20008V   23122.61114127  .00000714  00000-0  20099-2 0  9992
2 45150  87.8789 263.0348 0001931 113.2024 246.9307 13.10374295158973
1 45150U 20008V   23122.84021402  .00000660  00000-0  18545-2 0  9993
2 45150  87.8789 262.9888 0001957 114.6261 245.5071 13.10374133159005
1 45150U 20008V   23123.45107321  .00000682  00000-0  19174-2 0  9999
2 45150  87.8791 262.8669 0001972 114.3106 245.8228 13.10374840159086
1 45150U 20008V   23123.83286000  .00000679  00000-0  19083-2 0  9998
2 45150  87.8792 262.7908 0001986 114.1709 245.9626 13.10375245159908
1 45150U 20008V   23123.90921739  .00000676  00000-0  19013-2 0  9991
2 45150  87.8792 262.7756 0001985 114.1594 245.9741 13.10375228159145
1 45150U 20008V   23124.44371804  .00000639  00000-0  17932-2 0  9990
2 45150  87.8794 262.6690 0002016 113.7823 246.3516 13.10376403159218
1 45150U 20008V   23124.90186217  .00000519  00000-0  14503-2 0  9991
2 45150  87.8795 262.5776 0002020 113.6265 246.5074 13.10376243159276
1 45150U 20008V   23124.90186217  .00000519  00000-0  14503-2 0  9991
2 45150  87.8795 262.5776 0002020 113.6265 246.5074 13.10376243160043
1 45150U 20008V   23125.89450550  .00000367  00000-0  10140-2 0  9998
2 45150  87.8798 262.3797 0002043 113.9489 246.1853 13.10377181159404
1 45150U 20008V   23126.12357688  .00000345  00000-0  95106-3 0  9995
2 45150  87.8799 262.3340 0002050 113.8301 246.3041 13.10377351160209
1 45150U 20008V   23126.35264781  .00000380  00000-0  10519-2 0  9994
2 45150  87.8800 262.2884 0002047 113.7982 246.3360 13.10377863159462
1 45150U 20008V   23127.42164750  .00000119  00000-0  30406-3 0  9996
2 45150  87.8802 262.0754 0002077 113.4904 246.6442 13.10378092159607
1 45150U 20008V   23127.42164750  .00000119  00000-0  30406-3 0  9996
2 45150  87.8802 262.0754 0002077 113.4904 246.6442 13.10378092160373
1 45150U 20008V   23127.87979002 -.00000014  00000-0 -75209-4 0  9996
2 45150  87.8803 261.9840 0002092 113.3455 246.7892 13.10378222159660
1 45150U 20008V   23128.79607488 -.00000152  00000-0 -47266-3 0  9998
2 45150  87.8805 261.8014 0002124 113.0730 247.0622 13.10378078160557
1 45150U 20008V   23128.87243229 -.00000215  00000-0 -65233-3 0  9990
2 45150  87.8804 261.7862 0002127 113.0857 247.0495 13.10377822159797
1 45150U 20008V   23129.40693213 -.00000296  00000-0 -88278-3 0  9995
2 45150  87.8805 261.6797 0002141 112.8027 247.3327 13.10377520159866
1 45150U 20008V   23130.39957410 -.00000371  00000-0 -10982-2 0  9997
2 45150  87.8806 261.4819 0002166 112.4850 247.6507 13.10377761159991
1 45150U 20008V   23130.78136064 -.00000540  00000-0 -15833-2 0  9992
2 45150  87.8806 261.4061 0002179 112.6807 247.4551 13.10376977160041
1 45150U 20008V   23131.39221794 -.00000563  00000-0 -16480-2 0  9999
2 45150  87.8807 261.2841 0002186 112.6299 247.5060 13.10377108160121
1 45150U 20008V   23131.39221794 -.00000563  00000-0 -16480-2 0  9999
2 45150  87.8807 261.2841 0002186 112.6299 247.5060 13.10377108160895
1 45150U 20008V   23131.85036206 -.00000664  00000-0 -19382-2 0  9998
2 45150  87.8807 261.1927 0002192 112.4832 247.6527 13.10376143160186
1 45150U 20008V   23132.76665102 -.00000696  00000-0 -20298-2 0  9995
2 45150  87.8807 261.0102 0002213 111.7686 248.3677 13.10374429161071
1 45150U 20008V   23132.84300864 -.00000733  00000-0 -21353-2 0  9990
2 45150  87.8807 260.9949 0002205 111.8667 248.2695 13.10374117160318
1 45150U 20008V   23133.37751060 -.00000653  00000-0 -19063-2 0  9993
2 45150  87.8808 260.8883 0002216 111.7559 248.3804 13.10373837160384
1 45150U 20008V   23133.83565608 -.00000659  00000-0 -19244-2 0  9992
2 45150  87.8807 260.7969 0002220 111.4744 248.6621 13.10373061160441
1 45150U 20008V   23133.83565608 -.00000659  00000-0 -19244-2 0  9992
2 45150  87.8807 260.7969 0002220 111.4744 248.6621 13.10373061161217
1 45150U 20008V   23134.37015884 -.00000535  00000-0 -15676-2 0  9996
2 45150  87.8807 260.6904 0002236 111.1204 249.0163 13.10372705160512
1 45150U 20008V   23134.82830509 -.00000454  00000-0 -13378-2 0  9992
2 45150  87.8807 260.5992 0002251 111.0979 249.0389 13.10371666160574
1 45150U 20008V   23135.05737816 -.00000380  00000-0 -11247-2 0  9996
2 45150  87.8807 260.5537 0002258 111.0468 249.0901 13.10371291161372
1 45150U 20008V   23135.36280839 -.00000300  00000-0 -89600-3 0  9999
2 45150  87.8807 260.4928 0002268 110.7580 249.3790 13.10371668160643
1 45150U 20008V   23135.59188095 -.00000232  00000-0 -70026-3 0  9991
2 45150  87.8807 260.4472 0002277 110.6171 249.5201 13.10372022160679
1 45150U 20008V   23136.35545893 -.00000168  00000-0 -51736-3 0  9994
2 45150  87.8807 260.2952 0002289 110.5176 249.6197 13.10370995160770
1 45150U 20008V   23136.35545893 -.00000168  00000-0 -51736-3 0  9994
2 45150  87.8807 260.2952 0002289 110.5176 249.6197 13.10370995161546
